{
    "links": {
        "self": "http://www.neowsapp.com/rest/v1/neo/54051347?api_key=iIulBulltgU6a56xZRHN4H3l9WmuAYTsLGpBGhQ2"
    },
    "id": "54051347",
    "neo_reference_id": "54051347",
    "name": "(2020 QS4)",
    "designation": "2020 QS4",
    "nasa_jpl_url": "http://ssd.jpl.nasa.gov/sbdb.cgi?sstr=54051347",
    "absolute_magnitude_h": 24.016,
    "estimated_diameter": {
        "kilometers": {
            "estimated_diameter_min": 0.0418172026,
            "estimated_diameter_max": 0.0935061076
        },
        "meters": {
            "estimated_diameter_min": 41.8172025692,
            "estimated_diameter_max": 93.5061075735
        },
        "miles": {
            "estimated_diameter_min": 0.025983997,
            "estimated_diameter_max": 0.0581019836
        },
        "feet": {
            "estimated_diameter_min": 137.195550877,
            "estimated_diameter_max": 306.7785779716
        }
    },
    "is_potentially_hazardous_asteroid": false,
    "close_approach_data": [
        {
            "close_approach_date": "2020-08-19",
            "close_approach_date_full": "2020-Aug-19 22:25",
            "epoch_date_close_approach": 1597875900000,
            "relative_velocity": {
                "kilometers_per_second": "11.5023032625",
                "kilometers_per_hour": "41408.2917451494",
                "miles_per_hour": "25729.5021679791"
            },
            "miss_distance": {
                "astronomical": "0.2110274627",
                "lunar": "82.0896829903",
                "kilometers": "31569258.931424449",
                "miles": "19616227.8834134362"
            },
            "orbiting_body": "Earth"
        }
    ],
    "orbital_data": {
        "orbit_id": "2",
        "orbit_determination_date": "2020-08-26 07:13:22",
        "first_observation_date": "2020-08-19",
        "last_observation_date": "2020-08-26",
        "data_arc_in_days": 7,
        "observations_used": 24,
        "orbit_uncertainty": "8",
        "minimum_orbit_intersection": ".206726",
        "jupiter_tisserand_invariant": "4.599",
        "epoch_osculation": "2459083.5",
        "eccentricity": ".1524038826124427",
        "semi_major_axis": "1.428819039146896",
        "inclination": "22.38231680217952",
        "ascending_node_longitude": "151.5523646537825",
        "orbital_period": "623.8271467136489",
        "perihelion_distance": "1.211061470030329",
        "perihelion_argument": "161.1951890519819",
        "aphelion_distance": "1.646576608263463",
        "perihelion_time": "2459066.055121314032",
        "mean_anomaly": "10.06714177161517",
        "mean_motion": ".5770829337846183",
        "equinox": "J2000",
        "orbit_class": {
            "orbit_class_type": "AMO",
            "orbit_class_description": "Near-Earth asteroid orbits similar to that of 1221 Amor",
            "orbit_class_range": "1.017 AU < q (perihelion) < 1.3 AU"
        }
    },
    "is_sentry_object": false
}